NORAD_CAT_ID,OBJECT_NAME,OBJECT_TYPE,EPOCH,MEAN_MOTION,ECCENTRICITY,INCLINATION,RA_OF_ASC_NODE,ARG_OF_PERICENTER,MEAN_ANOMALY,BSTAR,MEAN_MOTION_DOT,MEAN_MOTION_DDOT,TLE_LINE0,TLE_LINE1,TLE_LINE2,SEMIMAJOR_AXIS,PERIOD,APOGEE,PERIGEE,DECAYED
52453.0,STARLINK-3872,PAYLOAD,2023-09-07 06:14:56,15.0884943,0.0001429,53.2157,214.1541,92.7524,267.3632,5.3533e-05,5.64e-06,0.0,0 STARLINK-3872,1 52453U 22049C   23250.26037211  .00000564  00000-0  53533-4 0  9998,2 52453  53.2157 214.1541 0001429  92.7524 267.3632 15.08849430 74065,6917.852,95.437,540.705,538.728,0.0
52453.0,STARLINK-3872,PAYLOAD,2023-09-08 02:54:57,15.08836337,0.0001588,53.2183,210.2896,102.4949,257.6221,5.2688e-05,5.51e-06,0.0,0 STARLINK-3872,1 52453U 22049C   23251.12150212  .00000551  00000-0  52688-4 0  9997,2 52453  53.2183 210.2896 0001588 102.4949 257.6221 15.08836337 74350,6917.892,95.438,540.855,538.658,0.0
52453.0,STARLINK-3872,PAYLOAD,2023-09-08 06:05:44,15.08832913,0.0001591,53.2182,209.6959,95.5119,264.6055,6.3275e-05,7.19e-06,0.0,0 STARLINK-3872,1 52453U 22049C   23251.25398467  .00000719  00000-0  63275-4 0  9997,2 52453  53.2182 209.6959 0001591  95.5119 264.6055 15.08832913 74210,6917.902,95.438,540.868,538.666,0.0
52453.0,STARLINK-3872,PAYLOAD,2023-09-09 07:31:53,15.08842588,0.0001414,53.2173,204.936,95.8623,264.253,0.00013886,1.923e-05,0.0,0 STARLINK-3872,1 52453U 22049C   23252.31381826  .00001923  00000-0  13886-3 0  9996,2 52453  53.2173 204.9360 0001414  95.8623 264.2530 15.08842588 74539,6917.872,95.437,540.716,538.759,0.0
52453.0,STARLINK-3872,PAYLOAD,2023-09-09 13:53:26,15.0884216,0.0001352,53.2168,203.7461,91.0218,269.0929,9.2072e-05,1.178e-05,0.0,0 STARLINK-3872,1 52453U 22049C   23252.57877984  .00001178  00000-0  92072-4 0  9996,2 52453  53.2168 203.7461 0001352  91.0218 269.0929 15.08842160 74419,6917.874,95.437,540.674,538.803,0.0
52453.0,STARLINK-3872,PAYLOAD,2023-09-10 01:01:09,15.08834964,0.0001407,53.217,201.665,89.4354,270.6799,7.4182e-05,8.93e-06,0.0,0 STARLINK-3872,1 52453U 22049C   23253.04246670  .00000893  00000-0  74182-4 0  9996,2 52453  53.2170 201.6650 0001407  89.4354 270.6799 15.08834964 74643,6917.896,95.438,540.734,538.787,0.0
52453.0,STARLINK-3872,PAYLOAD,2023-09-10 05:47:18,15.08840647,0.0001478,53.2166,200.7727,96.5352,263.5808,9.6319e-05,1.245e-05,0.0,0 STARLINK-3872,1 52453U 22049C   23253.24118300  .00001245  00000-0  96319-4 0  9994,2 52453  53.2166 200.7727 0001478  96.5352 263.5808 15.08840647 74511,6917.878,95.438,540.766,538.721,0.0
52453.0,STARLINK-3872,PAYLOAD,2023-09-11 02:27:19,15.08838883,0.0001569,53.2179,196.9065,93.0476,267.0695,-2.9091e-05,-7.51e-06,0.0,0 STARLINK-3872,1 52453U 22049C   23254.10231152 -.00000751  00000-0 -29091-4 0  9997,2 52453  53.2179 196.9065 0001569  93.0476 267.0695 15.08838883 74800,6917.884,95.438,540.834,538.663,0.0
52453.0,STARLINK-3872,PAYLOAD,2023-09-11 13:35:01,15.08844518,0.0001496,53.2173,194.8237,88.7102,271.4062,6.9242e-05,8.14e-06,0.0,0 STARLINK-3872,1 52453U 22049C   23254.56598465  .00000814  00000-0  69242-4 0  9990,2 52453  53.2173 194.8237 0001496  88.7102 271.4062 15.08844518 74717,6917.867,95.437,540.766,538.697,0.0
52453.0,STARLINK-3872,PAYLOAD,2023-09-12 02:18:05,15.08851993,0.0001339,53.216,192.446,87.6325,272.4821,0.00020381,2.958e-05,0.0,0 STARLINK-3872,1 52453U 22049C   23255.09589541  .00002958  00000-0  20381-3 0  9995,2 52453  53.2160 192.4460 0001339  87.6325 272.4821 15.08851993 74951,6917.844,95.437,540.635,538.782,0.0
52453.0,STARLINK-3872,PAYLOAD,2023-09-12 05:28:51,15.08856815,0.0001389,53.2165,191.8506,98.7342,261.3808,0.00017832,2.552e-05,0.0,0 STARLINK-3872,1 52453U 22049C   23255.22837273  .00002552  00000-0  17832-3 0  9995,2 52453  53.2165 191.8506 0001389  98.7342 261.3808 15.08856815 74812,6917.829,95.436,540.655,538.733,0.0
52453.0,STARLINK-3872,PAYLOAD,2023-09-13 02:08:52,15.08850659,0.0001394,53.2154,187.9847,102.8611,257.2537,0.00018646,2.682e-05,0.0,0 STARLINK-3872,1 52453U 22049C   23256.08949878  .00002682  00000-0  18646-3 0  9993,2 52453  53.2154 187.9847 0001394 102.8611 257.2537 15.08850659 75102,6917.848,95.437,540.677,538.748,0.0
52453.0,STARLINK-3872,PAYLOAD,2023-09-13 05:19:38,15.08856124,0.0001487,53.2167,187.3871,109.0211,251.0943,0.00025237,3.733e-05,0.0,0 STARLINK-3872,1 52453U 22049C   23256.22197527  .00003733  00000-0  25237-3 0  9997,2 52453  53.2167 187.3871 0001487 109.0211 251.0943 15.08856124 74964,6917.831,95.437,540.725,538.667,0.0
52453.0,STARLINK-3872,PAYLOAD,2023-09-13 19:38:07,15.08839941,0.0001613,53.2158,184.7141,95.4718,264.6458,-7.2596e-05,-1.443e-05,0.0,0 STARLINK-3872,1 52453U 22049C   23256.81814248 -.00001443  00000-0 -72596-4 0  9997,2 52453  53.2158 184.7141 0001613  95.4718 264.6458 15.08839941 75056,6917.881,95.438,540.861,538.63,0.0
52453.0,STARLINK-3872,PAYLOAD,2023-09-14 01:59:40,15.08840656,0.0001396,53.2162,183.5251,91.2479,268.8673,-7.2769e-05,-1.446e-05,0.0,0 STARLINK-3872,1 52453U 22049C   23257.08310233 -.00001446  00000-0 -72769-4 0  9997,2 52453  53.2162 183.5251 0001396  91.2479 268.8673 15.08840656 75258,6917.878,95.438,540.709,538.778,0.0
52453.0,STARLINK-3872,PAYLOAD,2023-09-14 05:10:26,15.08840313,0.0001404,53.2161,182.9304,92.3645,267.7508,-3.2329e-05,-8.02e-06,0.0,0 STARLINK-3872,1 52453U 22049C   23257.21558324 -.00000802  00000-0 -32329-4 0  9990,2 52453  53.2161 182.9304 0001404  92.3645 267.7508 15.08840313 75116,6917.879,95.438,540.716,538.773,0.0
52453.0,STARLINK-3872,PAYLOAD,2023-09-14 17:53:31,15.08833542,0.0001415,53.2164,180.5504,97.7974,262.3179,3.8274e-05,3.21e-06,0.0,0 STARLINK-3872,1 52453U 22049C   23257.74550831  .00000321  00000-0  38274-4 0  9992,2 52453  53.2164 180.5504 0001415  97.7974 262.3179 15.08833542 75358,6917.9,95.438,540.744,538.786,0.0
52453.0,STARLINK-3872,PAYLOAD,2023-09-15 03:25:50,15.08844299,0.0001347,53.2163,178.7688,93.607,266.5076,8.8486e-05,1.121e-05,0.0,0 STARLINK-3872,1 52453U 22049C   23258.14294391  .00001121  00000-0  88486-4 0  9992,2 52453  53.2163 178.7688 0001347  93.6070 266.5076 15.08844299 75415,6917.867,95.437,540.664,538.8,0.0
52453.0,STARLINK-3872,PAYLOAD,2023-09-15 05:01:13,15.08846198,0.0001319,53.216,178.4705,92.6213,267.493,0.00012313,1.673e-05,0.0,0 STARLINK-3872,1 52453U 22049C   23258.20918306  .00001673  00000-0  12313-3 0  9995,2 52453  53.2160 178.4705 0001319  92.6213 267.4930 15.08846198 75268,6917.861,95.437,540.639,538.814,0.0
52453.0,STARLINK-3872,PAYLOAD,2023-09-16 03:16:37,15.08846967,0.0001336,53.2169,174.3094,91.7665,268.3481,0.00026614,3.951e-05,0.0,0 STARLINK-3872,1 52453U 22049C   23259.13654447  .00003951  00000-0  26614-3 0  9991,2 52453  53.2169 174.3094 0001336  91.7665 268.3481 15.08846967 75404,6917.859,95.437,540.648,538.8,0.0
52453.0,STARLINK-3872,PAYLOAD,2023-09-16 17:35:05,15.08839184,0.0001308,53.2172,171.6336,87.5895,272.5247,0.00012349,1.678e-05,0.0,0 STARLINK-3872,1 52453U 22049C   23259.73270795  .00001678  00000-0  12349-3 0  9991,2 52453  53.2172 171.6336 0001308  87.5895 272.5247 15.08839184 75651,6917.883,95.438,540.653,538.843,0.0
52453.0,STARLINK-3872,PAYLOAD,2023-09-17 03:07:24,15.08840852,0.0001228,53.2162,169.846,89.6102,270.5031,4.3184e-05,3.99e-06,0.0,0 STARLINK-3872,1 52453U 22049C   23260.13014828  .00000399  00000-0  43184-4 0  9991,2 52453  53.2162 169.8460 0001228  89.6102 270.5031 15.08840852 75554,6917.878,95.438,540.592,538.893,0.0
52453.0,STARLINK-3872,PAYLOAD,2023-09-18 01:22:48,15.0885488,0.0001381,53.2171,165.6832,84.5513,275.5637,0.00019179,2.767e-05,0.0,0 STARLINK-3872,1 52453U 22049C   23261.05750331  .00002767  00000-0  19179-3 0  9996,2 52453  53.2171 165.6832 0001381  84.5513 275.5637 15.08854880 75857,6917.835,95.437,540.655,538.745,0.0
52453.0,STARLINK-3872,PAYLOAD,2023-09-18 04:33:34,15.08852611,0.000146,53.217,165.0879,91.174,268.9419,0.00032181,4.839e-05,0.0,0 STARLINK-3872,1 52453U 22049C   23261.18998442  .00004839  00000-0  32181-3 0  9997,2 52453  53.2170 165.0879 0001460  91.1740 268.9419 15.08852611 75714,6917.842,95.437,540.717,538.697,0.0
52453.0,STARLINK-3872,PAYLOAD,2023-09-19 01:13:35,15.08850561,0.0001353,53.2156,161.2203,91.2316,268.8831,0.00031729,4.767e-05,0.0,0 STARLINK-3872,1 52453U 22049C   23262.05110647  .00004767  00000-0  31729-3 0  9994,2 52453  53.2156 161.2203 0001353  91.2316 268.8831 15.08850561 76000,6917.848,95.437,540.649,538.777,0.0
52453.0,STARLINK-3872,PAYLOAD,2023-09-20 02:39:44,15.0885893,0.0001367,53.215,156.4647,87.6197,272.4951,0.0002812,4.192e-05,0.0,0 STARLINK-3872,1 52453U 22049C   23263.11093548  .00004192  00000-0  28120-3 0  9995,2 52453  53.2150 156.4647 0001367  87.6197 272.4951 15.08858930 76162,6917.823,95.436,540.633,538.742,0.0
52453.0,STARLINK-3872,PAYLOAD,2023-09-20 10:36:41,15.08836508,0.000103,53.2168,154.9761,128.1423,231.9662,-0.00013492,-2.434e-05,0.0,0 STARLINK-3872,1 52453U 22049C   23263.44214147 -.00002434  00000-0 -13492-3 0  9996,2 52453  53.2168 154.9761 0001030 128.1423 231.9662 15.08836508 76213,6917.891,95.438,540.469,539.044,0.0
52453.0,STARLINK-3872,PAYLOAD,2023-09-20 21:44:23,15.08822507,0.0001826,53.2157,152.8942,117.8658,242.2519,-0.00038711,-6.441e-05,0.0,0 STARLINK-3872,1 52453U 22049C   23263.90583307 -.00006441  00000-0 -38711-3 0  9997,2 52453  53.2157 152.8942 0001826 117.8658 242.2519 15.08822507 76127,6917.934,95.439,541.062,538.536,0.0
52453.0,STARLINK-3872,PAYLOAD,2023-09-20 23:19:47,15.08823677,0.0001712,53.2171,152.5979,117.8634,242.2531,-0.00029113,-4.916e-05,0.0,0 STARLINK-3872,1 52453U 22049C   23263.97207720 -.00004916  00000-0 -29113-3 0  9997,2 52453  53.2171 152.5979 0001712 117.8634 242.2531 15.08823677 76299,6917.93,95.439,540.98,538.611,0.0
52453.0,STARLINK-3872,PAYLOAD,2023-09-21 02:30:33,15.08823857,0.0001591,53.2164,152.0025,110.6925,249.4237,-0.00027162,-4.606e-05,0.0,0 STARLINK-3872,1 52453U 22049C   23264.10455853 -.00004606  00000-0 -27162-3 0  9993,2 52453  53.2164 152.0025 0001591 110.6925 249.4237 15.08823857 76154,6917.93,95.439,540.895,538.694,0.0
